[{"OBJECT_NAME":"YAOGAN-28","OBJECT_ID":"2015-064A","EPOCH":"2026-03-05T07:22:47.218080","MEAN_MOTION":15.25909268,"ECCENTRICITY":0.00108561,"INCLINATION":97.2896,"RA_OF_ASC_NODE":204.8984,"ARG_OF_PERICENTER":191.7913,"MEAN_ANOMALY":168.3073,"EPHEMERIS_TYPE":0,"CLASSIFICATION_TYPE":"U","NORAD_CAT_ID":41026,"ELEMENT_SET_NO":999,"REV_AT_EPOCH":57483,"BSTAR":0.00037310018,"MEAN_MOTION_DOT":9.515e-5,"MEAN_MOTION_DDOT":0},{"OBJECT_NAME":"YAOGAN-29","OBJECT_ID":"2015-069A","EPOCH":"2026-03-05T08:11:29.195232","MEAN_MOTION":14.82988914,"ECCENTRICITY":0.00021609,"INCLINATION":98.0144,"RA_OF_ASC_NODE":92.7588,"ARG_OF_PERICENTER":42.7861,"MEAN_ANOMALY":317.352,"EPHEMERIS_TYPE":0,"CLASSIFICATION_TYPE":"U","NORAD_CAT_ID":41038,"ELEMENT_SET_NO":999,"REV_AT_EPOCH":55523,"BSTAR":5.486939e-5,"MEAN_MOTION_DOT":3.92e-6,"MEAN_MOTION_DDOT":0},{"OBJECT_NAME":"KENT RIDGE 1","OBJECT_ID":"2015-077B","EPOCH":"2026-03-04T21:17:18.920256","MEAN_MOTION":15.22405743,"ECCENTRICITY":0.00084192,"INCLINATION":14.9805,"RA_OF_ASC_NODE":321.2639,"ARG_OF_PERICENTER":209.074,"MEAN_ANOMALY":150.9113,"EPHEMERIS_TYPE":0,"CLASSIFICATION_TYPE":"U","NORAD_CAT_ID":41167,"ELEMENT_SET_NO":999,"REV_AT_EPOCH":56517,"BSTAR":0.0002360432,"MEAN_MOTION_DOT":6.39e-5,"MEAN_MOTION_DDOT":0},{"OBJECT_NAME":"GAOFEN-4","OBJECT_ID":"2015-083A","EPOCH":"2026-03-05T00:48:26.172000","MEAN_MOTION":1.00269157,"ECCENTRICITY":0.00036611,"INCLINATION":0.3815,"RA_OF_ASC_NODE":83.8394,"ARG_OF_PERICENTER":83.8162,"MEAN_ANOMALY":112.8907,"EPHEMERIS_TYPE":0,"CLASSIFICATION_TYPE":"U","NORAD_CAT_ID":41194,"ELEMENT_SET_NO":999,"REV_AT_EPOCH":3748,"BSTAR":0,"MEAN_MOTION_DOT":-3.43e-6,"MEAN_MOTION_DDOT":0},{"OBJECT_NAME":"JASON-3","OBJECT_ID":"2016-002A","EPOCH":"2026-03-05T07:31:10.065216","MEAN_MOTION":12.87628301,"ECCENTRICITY":0.00078198,"INCLINATION":66.0448,"RA_OF_ASC_NODE":344.2214,"ARG_OF_PERICENTER":276.8386,"MEAN_ANOMALY":83.1743,"EPHEMERIS_TYPE":0,"CLASSIFICATION_TYPE":"U","NORAD_CAT_ID":41240,"ELEMENT_SET_NO":999,"REV_AT_EPOCH":47387,"BSTAR":0.00022232446,"MEAN_MOTION_DOT":-6.0e-8,"MEAN_MOTION_DDOT":0},{"OBJECT_NAME":"SENTINEL-3A","OBJECT_ID":"2016-011A","EPOCH":"2026-03-05T06:49:00.689664","MEAN_MOTION":14.26739953,"ECCENTRICITY":0.00012358,"INCLINATION":98.6237,"RA_OF_ASC_NODE":133.1348,"ARG_OF_PERICENTER":100.3557,"MEAN_ANOMALY":259.7763,"EPHEMERIS_TYPE":0,"CLASSIFICATION_TYPE":"U","NORAD_CAT_ID":41335,"ELEMENT_SET_NO":999,"REV_AT_EPOCH":52324,"BSTAR":8.9722269e-5,"MEAN_MOTION_DOT":1.74e-6,"MEAN_MOTION_DDOT":0},{"OBJECT_NAME":"ZIYUAN 3-02 (ZY 3-02)","OBJECT_ID":"2016-033A","EPOCH":"2026-03-05T06:26:01.061376","MEAN_MOTION":15.21477579,"ECCENTRICITY":0.00112049,"INCLINATION":97.3908,"RA_OF_ASC_NODE":142.0029,"ARG_OF_PERICENTER":316.3573,"MEAN_ANOMALY":43.6776,"EPHEMERIS_TYPE":0,"CLASSIFICATION_TYPE":"U","NORAD_CAT_ID":41556,"ELEMENT_SET_NO":999,"REV_AT_EPOCH":54218,"BSTAR":0.00037812372,"MEAN_MOTION_DOT":8.45e-5,"MEAN_MOTION_DDOT":0},{"OBJECT_NAME":"CARTOSAT-2C","OBJECT_ID":"2016-040A","EPOCH":"2026-03-05T07:47:04.867296","MEAN_MOTION":15.19313041,"ECCENTRICITY":0.00105786,"INCLINATION":97.4613,"RA_OF_ASC_NODE":125.6621,"ARG_OF_PERICENTER":136.9433,"MEAN_ANOMALY":223.2631,"EPHEMERIS_TYPE":0,"CLASSIFICATION_TYPE":"U","NORAD_CAT_ID":41599,"ELEMENT_SET_NO":999,"REV_AT_EPOCH":53794,"BSTAR":0.00025122502,"MEAN_MOTION_DOT":5.243e-5,"MEAN_MOTION_DDOT":0},{"OBJECT_NAME":"SKYSAT-C1","OBJECT_ID":"2016-040C","EPOCH":"2026-03-05T04:49:45.702624","MEAN_MOTION":15.34401403,"ECCENTRICITY":0.0003862,"INCLINATION":96.9704,"RA_OF_ASC_NODE":101.6161,"ARG_OF_PERICENTER":62.548,"MEAN_ANOMALY":297.6157,"EPHEMERIS_TYPE":0,"CLASSIFICATION_TYPE":"U","NORAD_CAT_ID":41601,"ELEMENT_SET_NO":999,"REV_AT_EPOCH":54191,"BSTAR":0.00033969906,"MEAN_MOTION_DOT":0.0001125,"MEAN_MOTION_DDOT":0},{"OBJECT_NAME":"LAPAN-A3","OBJECT_ID":"2016-040E","EPOCH":"2026-03-05T06:11:32.510688","MEAN_MOTION":15.32331319,"ECCENTRICITY":0.00115541,"INCLINATION":97.1477,"RA_OF_ASC_NODE":63.8845,"ARG_OF_PERICENTER":37.4366,"MEAN_ANOMALY":322.7679,"EPHEMERIS_TYPE":0,"CLASSIFICATION_TYPE":"U","NORAD_CAT_ID":41603,"ELEMENT_SET_NO":999,"REV_AT_EPOCH":53889,"BSTAR":0.00018004334,"MEAN_MOTION_DOT":5.556e-5,"MEAN_MOTION_DDOT":0},{"OBJECT_NAME":"GAOFEN-3","OBJECT_ID":"2016-049A","EPOCH":"2026-03-05T07:04:19.976160","MEAN_MOTION":14.42215612,"ECCENTRICITY":0.00016376,"INCLINATION":98.4047,"RA_OF_ASC_NODE":73.6327,"ARG_OF_PERICENTER":94.0147,"MEAN_ANOMALY":266.123,"EPHEMERIS_TYPE":0,"CLASSIFICATION_TYPE":"U","NORAD_CAT_ID":41727,"ELEMENT_SET_NO":999,"REV_AT_EPOCH":50367,"BSTAR":9.91458e-5,"MEAN_MOTION_DOT":2.83e-6,"MEAN_MOTION_DDOT":0},{"OBJECT_NAME":"SKYSAT-C4","OBJECT_ID":"2016-058B","EPOCH":"2026-03-05T07:36:08.630784","MEAN_MOTION":15.45191491,"ECCENTRICITY":8.226e-5,"INCLINATION":96.929,"RA_OF_ASC_NODE":90.6188,"ARG_OF_PERICENTER":94.115,"MEAN_ANOMALY":266.0194,"EPHEMERIS_TYPE":0,"CLASSIFICATION_TYPE":"U","NORAD_CAT_ID":41771,"ELEMENT_SET_NO":999,"REV_AT_EPOCH":52941,"BSTAR":0.00040380355,"MEAN_MOTION_DOT":0.000191,"MEAN_MOTION_DDOT":0},{"OBJECT_NAME":"SKYSAT-C5","OBJECT_ID":"2016-058C","EPOCH":"2026-03-05T01:32:44.002752","MEAN_MOTION":15.34184546,"ECCENTRICITY":0.00018509,"INCLINATION":97.0619,"RA_OF_ASC_NODE":109.3284,"ARG_OF_PERICENTER":85.5014,"MEAN_ANOMALY":274.6442,"EPHEMERIS_TYPE":0,"CLASSIFICATION_TYPE":"U","NORAD_CAT_ID":41772,"ELEMENT_SET_NO":999,"REV_AT_EPOCH":52778,"BSTAR":0.00035263944,"MEAN_MOTION_DOT":0.00011599,"MEAN_MOTION_DDOT":0},{"OBJECT_NAME":"SKYSAT-C2","OBJECT_ID":"2016-058D","EPOCH":"2026-03-05T03:48:38.054592","MEAN_MOTION":15.39556265,"ECCENTRICITY":0.00052348,"INCLINATION":97.0281,"RA_OF_ASC_NODE":90.2891,"ARG_OF_PERICENTER":78.1719,"MEAN_ANOMALY":282.0115,"EPHEMERIS_TYPE":0,"CLASSIFICATION_TYPE":"U","NORAD_CAT_ID":41773,"ELEMENT_SET_NO":999,"REV_AT_EPOCH":52903,"BSTAR":0.00040316752,"MEAN_MOTION_DOT":0.00015795,"MEAN_MOTION_DDOT":0},{"OBJECT_NAME":"SKYSAT-C3","OBJECT_ID":"2016-058E","EPOCH":"2026-03-05T02:21:36.915552","MEAN_MOTION":15.48077211,"ECCENTRICITY":0.00015619,"INCLINATION":96.9179,"RA_OF_ASC_NODE":99.1649,"ARG_OF_PERICENTER":102.9453,"MEAN_ANOMALY":257.1974,"EPHEMERIS_TYPE":0,"CLASSIFICATION_TYPE":"U","NORAD_CAT_ID":41774,"ELEMENT_SET_NO":999,"REV_AT_EPOCH":52998,"BSTAR":0.00046257425,"MEAN_MOTION_DOT":0.00024193,"MEAN_MOTION_DDOT":0},{"OBJECT_NAME":"ALSAT-1B","OBJECT_ID":"2016-059C","EPOCH":"2026-03-05T07:42:37.579392","MEAN_MOTION":14.72180985,"ECCENTRICITY":0.00087726,"INCLINATION":97.7799,"RA_OF_ASC_NODE":77.5531,"ARG_OF_PERICENTER":191.7851,"MEAN_ANOMALY":168.3153,"EPHEMERIS_TYPE":0,"CLASSIFICATION_TYPE":"U","NORAD_CAT_ID":41785,"ELEMENT_SET_NO":999,"REV_AT_EPOCH":50529,"BSTAR":5.6893307e-5,"MEAN_MOTION_DOT":3.12e-6,"MEAN_MOTION_DDOT":0},{"OBJECT_NAME":"PATHFINDER 1","OBJECT_ID":"2016-059E","EPOCH":"2026-03-04T22:59:03.220224","MEAN_MOTION":14.67507954,"ECCENTRICITY":0.00285339,"INCLINATION":97.8175,"RA_OF_ASC_NODE":67.9466,"ARG_OF_PERICENTER":175.7409,"MEAN_ANOMALY":184.4045,"EPHEMERIS_TYPE":0,"CLASSIFICATION_TYPE":"U","NORAD_CAT_ID":41787,"ELEMENT_SET_NO":999,"REV_AT_EPOCH":50442,"BSTAR":0.00018280472,"MEAN_MOTION_DOT":9.96e-6,"MEAN_MOTION_DDOT":0}]
