YAOGAN-28               
1 41026U 15064A   26064.30749095  .00009515  00000+0  37310-3 0  9990
2 41026  97.2896 204.8984 0010856 191.7913 168.3073 15.25909268574834
YAOGAN-29               
1 41038U 15069A   26064.34131013  .00000392  00000+0  54869-4 0  9990
2 41038  98.0144  92.7588 0002160  42.7861 317.3520 14.82988914555235
KENT RIDGE 1            
1 41167U 15077B   26063.88702454  .00006390  00000+0  23604-3 0  9999
2 41167  14.9805 321.2639 0008419 209.0740 150.9113 15.22405743565175
GAOFEN-4                
1 41194U 15083A   26064.03363625 -.00000343  00000+0  00000+0 0  9991
2 41194   0.3815  83.8394 0003661  83.8162 112.8907  1.00269157 37488
JASON-3                 
1 41240U 16002A   26064.31331094 -.00000006  00000+0  22232-3 0  9992
2 41240  66.0448 344.2214 0007819 276.8386  83.1743 12.87628301473879
SENTINEL-3A             
1 41335U 16011A   26064.28403576  .00000174  00000+0  89722-4 0  9991
2 41335  98.6237 133.1348 0001235 100.3557 259.7763 14.26739953523242
ZIYUAN 3-02 (ZY 3-02)   
1 41556U 16033A   26064.26806784  .00008450  00000+0  37812-3 0  9993
2 41556  97.3908 142.0029 0011204 316.3573  43.6776 15.21477579542184
CARTOSAT-2C             
1 41599U 16040A   26064.32436189  .00005243  00000+0  25123-3 0  9992
2 41599  97.4613 125.6621 0010578 136.9433 223.2631 15.19313041537948
SKYSAT-C1               
1 41601U 16040C   26064.20122341  .00011250  00000+0  33970-3 0  9999
2 41601  96.9704 101.6161 0003862  62.5480 297.6157 15.34401403541911
LAPAN-A3                
1 41603U 16040E   26064.25801517  .00005556  00000+0  18004-3 0  9998
2 41603  97.1477  63.8845 0011554  37.4366 322.7679 15.32331319538890
GAOFEN-3                
1 41727U 16049A   26064.29467565  .00000283  00000+0  99146-4 0  9998
2 41727  98.4047  73.6327 0001637  94.0147 266.1230 14.42215612503674
SKYSAT-C4               
1 41771U 16058B   26064.31676656  .00019100  00000+0  40380-3 0  9996
2 41771  96.9290  90.6188 0000822  94.1150 266.0194 15.45191491529410
SKYSAT-C5               
1 41772U 16058C   26064.06439818  .00011599  00000+0  35264-3 0  9995
2 41772  97.0619 109.3284 0001850  85.5014 274.6442 15.34184546527788
SKYSAT-C2               
1 41773U 16058D   26064.15877378  .00015795  00000+0  40317-3 0  9990
2 41773  97.0281  90.2891 0005234  78.1719 282.0115 15.39556265529032
SKYSAT-C3               
1 41774U 16058E   26064.09834393  .00024193  00000+0  46257-3 0  9995
2 41774  96.9179  99.1649 0001561 102.9453 257.1974 15.48077211529985
ALSAT-1B                
1 41785U 16059C   26064.32126828  .00000312  00000+0  56893-4 0  9996
2 41785  97.7799  77.5531 0008772 191.7851 168.3153 14.72180985505292
PATHFINDER 1            
1 41787U 16059E   26063.95767616  .00000996  00000+0  18280-3 0  9997
2 41787  97.8175  67.9466 0028533 175.7409 184.4045 14.67507954504427
